STARLINK-30227          
1 57505U 23113L   26068.22529593  .00032605  00000+0  15711-2 0  9993
2 57505  43.0053   4.8681 0002789 225.8359 134.2260 15.18160462143769
PIAST-M                 
1 66758U 25276CW  26068.71168154  .00006332  00000+0  30409-3 0  9991
2 66758  97.4255 144.0316 0000747  58.1322 301.9986 15.19194203 15326
